ONEWEB-0113             
1 48050U 21025J   26011.22244634  .00000173  00000+0  43488-3 0  9994
2 48050  87.9001 351.3514 0001974  82.3009 277.8344 13.13987141232997
ONEWEB-0112             
1 48051U 21025K   26011.18384330  .00001482  00000+0  40242-2 0  9996
2 48051  87.9003 351.4001 0001588  84.0969 276.0342 13.13461292232989
ONEWEB-0156             
1 48052U 21025L   26011.19231410 -.00000265  00000+0 -76147-3 0  9992
2 48052  87.9002 351.4097 0001761  88.9497 271.1834 13.13471381232966
ONEWEB-0161             
1 48053U 21025M   26011.16693000  .00000295  00000+0  77183-3 0  9999
2 48053  87.8996 351.4284 0001701  90.5141 269.6183 13.13469179232898
ONEWEB-0158             
1 48054U 21025N   26011.20247543 -.00000252  00000+0 -72387-3 0  9998
2 48054  87.9000 351.4077 0001806  73.7288 286.4040 13.13469582233020
ONEWEB-0157             
1 48055U 21025P   26011.30404999  .00000310  00000+0  81347-3 0  9999
2 48055  87.9000 351.3930 0001519  96.1885 263.9418 13.13470008232978
ONEWEB-0162             
1 48056U 21025Q   26011.20402867 -.00000210  00000+0 -60939-3 0  9996
2 48056  87.9005 351.4160 0001873  88.3280 271.8063 13.13470191232938
ONEWEB-0155             
1 48057U 21025R   26010.98239879 -.00000167  00000+0 -49112-3 0  9993
2 48057  87.8995 351.4638 0001549  85.3460 274.7846 13.13470687233047
ONEWEB-0149             
1 48058U 21025S   26011.30912886  .00000373  00000+0  98734-3 0  9998
2 48058  87.9001 351.3926 0001930  88.6066 271.5285 13.13469495232897
ONEWEB-0148             
1 48059U 21025T   26011.19570402 -.00000252  00000+0 -72486-3 0  9994
2 48059  87.8995 351.4329 0002166  99.0060 261.1314 13.13469136233003
ONEWEB-0160             
1 48060U 21025U   26011.21263401 -.00000069  00000+0 -22489-3 0  9991
2 48060  87.8995 351.4268 0002217  66.2762 293.8600 13.13470373232957
ONEWEB-0163             
1 48061U 21025V   26011.19739436 -.00000355  00000+0 -10081-2 0  9997
2 48061  87.9001 351.4183 0001535  92.0993 268.0312 13.13470817233079
ONEWEB-0159             
1 48062U 21025W   26011.18893197 -.00000239  00000+0 -69011-3 0  9991
2 48062  87.9004 351.4042 0001736  92.2985 267.8343 13.13468823232998
ONEWEB-0164             
1 48063U 21025X   26011.17030628  .00000198  00000+0  50767-3 0  9993
2 48063  87.9003 351.4146 0001762  81.7985 278.3344 13.13470369232979
ONEWEB-0167             
1 48064U 21025Y   26011.19824305 -.00000308  00000+0 -87708-3 0  9999
2 48064  87.8992 351.4340 0001014  81.8413 278.2831 13.13471503232969
ONEWEB-0166             
1 48065U 21025Z   26011.29727716  .00000065  00000+0  14433-3 0  9992
2 48065  87.9000 351.3728 0001826  90.2452 269.8887 13.13469761233059
