[{"OBJECT_NAME":"ONEWEB-0113","OBJECT_ID":"2021-025J","EPOCH":"2026-01-11T05:20:19.363776","MEAN_MOTION":13.13987141,"ECCENTRICITY":0.00019742,"INCLINATION":87.9001,"RA_OF_ASC_NODE":351.3514,"ARG_OF_PERICENTER":82.3009,"MEAN_ANOMALY":277.8344,"EPHEMERIS_TYPE":0,"CLASSIFICATION_TYPE":"U","NORAD_CAT_ID":48050,"ELEMENT_SET_NO":999,"REV_AT_EPOCH":23299,"BSTAR":0.00043487635,"MEAN_MOTION_DOT":1.73e-6,"MEAN_MOTION_DDOT":0},{"OBJECT_NAME":"ONEWEB-0112","OBJECT_ID":"2021-025K","EPOCH":"2026-01-11T04:24:44.061120","MEAN_MOTION":13.13461292,"ECCENTRICITY":0.00015887,"INCLINATION":87.9003,"RA_OF_ASC_NODE":351.4001,"ARG_OF_PERICENTER":84.0969,"MEAN_ANOMALY":276.0342,"EPHEMERIS_TYPE":0,"CLASSIFICATION_TYPE":"U","NORAD_CAT_ID":48051,"ELEMENT_SET_NO":999,"REV_AT_EPOCH":23298,"BSTAR":0.0040241562,"MEAN_MOTION_DOT":1.482e-5,"MEAN_MOTION_DDOT":0},{"OBJECT_NAME":"ONEWEB-0156","OBJECT_ID":"2021-025L","EPOCH":"2026-01-11T04:36:55.938240","MEAN_MOTION":13.13471381,"ECCENTRICITY":0.00017618,"INCLINATION":87.9002,"RA_OF_ASC_NODE":351.4097,"ARG_OF_PERICENTER":88.9497,"MEAN_ANOMALY":271.1834,"EPHEMERIS_TYPE":0,"CLASSIFICATION_TYPE":"U","NORAD_CAT_ID":48052,"ELEMENT_SET_NO":999,"REV_AT_EPOCH":23296,"BSTAR":-0.00076147053,"MEAN_MOTION_DOT":-2.65e-6,"MEAN_MOTION_DDOT":0},{"OBJECT_NAME":"ONEWEB-0161","OBJECT_ID":"2021-025M","EPOCH":"2026-01-11T04:00:22.752000","MEAN_MOTION":13.13469179,"ECCENTRICITY":0.00017015,"INCLINATION":87.8996,"RA_OF_ASC_NODE":351.4284,"ARG_OF_PERICENTER":90.5141,"MEAN_ANOMALY":269.6183,"EPHEMERIS_TYPE":0,"CLASSIFICATION_TYPE":"U","NORAD_CAT_ID":48053,"ELEMENT_SET_NO":999,"REV_AT_EPOCH":23289,"BSTAR":0.00077183489,"MEAN_MOTION_DOT":2.95e-6,"MEAN_MOTION_DDOT":0},{"OBJECT_NAME":"ONEWEB-0158","OBJECT_ID":"2021-025N","EPOCH":"2026-01-11T04:51:33.877152","MEAN_MOTION":13.13469582,"ECCENTRICITY":0.0001806,"INCLINATION":87.9,"RA_OF_ASC_NODE":351.4077,"ARG_OF_PERICENTER":73.7288,"MEAN_ANOMALY":286.404,"EPHEMERIS_TYPE":0,"CLASSIFICATION_TYPE":"U","NORAD_CAT_ID":48054,"ELEMENT_SET_NO":999,"REV_AT_EPOCH":23302,"BSTAR":-0.00072386547,"MEAN_MOTION_DOT":-2.52e-6,"MEAN_MOTION_DDOT":0},{"OBJECT_NAME":"ONEWEB-0157","OBJECT_ID":"2021-025P","EPOCH":"2026-01-11T07:17:49.919136","MEAN_MOTION":13.13470008,"ECCENTRICITY":0.00015197,"INCLINATION":87.9,"RA_OF_ASC_NODE":351.393,"ARG_OF_PERICENTER":96.1885,"MEAN_ANOMALY":263.9418,"EPHEMERIS_TYPE":0,"CLASSIFICATION_TYPE":"U","NORAD_CAT_ID":48055,"ELEMENT_SET_NO":999,"REV_AT_EPOCH":23297,"BSTAR":0.00081347455,"MEAN_MOTION_DOT":3.1e-6,"MEAN_MOTION_DDOT":0},{"OBJECT_NAME":"ONEWEB-0162","OBJECT_ID":"2021-025Q","EPOCH":"2026-01-11T04:53:48.077088","MEAN_MOTION":13.13470191,"ECCENTRICITY":0.00018736,"INCLINATION":87.9005,"RA_OF_ASC_NODE":351.416,"ARG_OF_PERICENTER":88.328,"MEAN_ANOMALY":271.8063,"EPHEMERIS_TYPE":0,"CLASSIFICATION_TYPE":"U","NORAD_CAT_ID":48056,"ELEMENT_SET_NO":999,"REV_AT_EPOCH":23293,"BSTAR":-0.00060938828,"MEAN_MOTION_DOT":-2.1e-6,"MEAN_MOTION_DDOT":0},{"OBJECT_NAME":"ONEWEB-0155","OBJECT_ID":"2021-025R","EPOCH":"2026-01-10T23:34:39.255456","MEAN_MOTION":13.13470687,"ECCENTRICITY":0.00015491,"INCLINATION":87.8995,"RA_OF_ASC_NODE":351.4638,"ARG_OF_PERICENTER":85.346,"MEAN_ANOMALY":274.7846,"EPHEMERIS_TYPE":0,"CLASSIFICATION_TYPE":"U","NORAD_CAT_ID":48057,"ELEMENT_SET_NO":999,"REV_AT_EPOCH":23304,"BSTAR":-0.00049111813,"MEAN_MOTION_DOT":-1.67e-6,"MEAN_MOTION_DDOT":0},{"OBJECT_NAME":"ONEWEB-0149","OBJECT_ID":"2021-025S","EPOCH":"2026-01-11T07:25:08.733504","MEAN_MOTION":13.13469495,"ECCENTRICITY":0.00019307,"INCLINATION":87.9001,"RA_OF_ASC_NODE":351.3926,"ARG_OF_PERICENTER":88.6066,"MEAN_ANOMALY":271.5285,"EPHEMERIS_TYPE":0,"CLASSIFICATION_TYPE":"U","NORAD_CAT_ID":48058,"ELEMENT_SET_NO":999,"REV_AT_EPOCH":23289,"BSTAR":0.00098733518,"MEAN_MOTION_DOT":3.73e-6,"MEAN_MOTION_DDOT":0},{"OBJECT_NAME":"ONEWEB-0148","OBJECT_ID":"2021-025T","EPOCH":"2026-01-11T04:41:48.827328","MEAN_MOTION":13.13469136,"ECCENTRICITY":0.00021668,"INCLINATION":87.8995,"RA_OF_ASC_NODE":351.4329,"ARG_OF_PERICENTER":99.006,"MEAN_ANOMALY":261.1314,"EPHEMERIS_TYPE":0,"CLASSIFICATION_TYPE":"U","NORAD_CAT_ID":48059,"ELEMENT_SET_NO":999,"REV_AT_EPOCH":23300,"BSTAR":-0.00072485931,"MEAN_MOTION_DOT":-2.52e-6,"MEAN_MOTION_DDOT":0},{"OBJECT_NAME":"ONEWEB-0160","OBJECT_ID":"2021-025U","EPOCH":"2026-01-11T05:06:11.578464","MEAN_MOTION":13.13470373,"ECCENTRICITY":0.00022172,"INCLINATION":87.8995,"RA_OF_ASC_NODE":351.4268,"ARG_OF_PERICENTER":66.2762,"MEAN_ANOMALY":293.86,"EPHEMERIS_TYPE":0,"CLASSIFICATION_TYPE":"U","NORAD_CAT_ID":48060,"ELEMENT_SET_NO":999,"REV_AT_EPOCH":23295,"BSTAR":-0.00022488789,"MEAN_MOTION_DOT":-6.9e-7,"MEAN_MOTION_DDOT":0},{"OBJECT_NAME":"ONEWEB-0163","OBJECT_ID":"2021-025V","EPOCH":"2026-01-11T04:44:14.872704","MEAN_MOTION":13.13470817,"ECCENTRICITY":0.00015356,"INCLINATION":87.9001,"RA_OF_ASC_NODE":351.4183,"ARG_OF_PERICENTER":92.0993,"MEAN_ANOMALY":268.0312,"EPHEMERIS_TYPE":0,"CLASSIFICATION_TYPE":"U","NORAD_CAT_ID":48061,"ELEMENT_SET_NO":999,"REV_AT_EPOCH":23307,"BSTAR":-0.0010081206,"MEAN_MOTION_DOT":-3.55e-6,"MEAN_MOTION_DDOT":0},{"OBJECT_NAME":"ONEWEB-0159","OBJECT_ID":"2021-025W","EPOCH":"2026-01-11T04:32:03.722208","MEAN_MOTION":13.13468823,"ECCENTRICITY":0.00017369,"INCLINATION":87.9004,"RA_OF_ASC_NODE":351.4042,"ARG_OF_PERICENTER":92.2985,"MEAN_ANOMALY":267.8343,"EPHEMERIS_TYPE":0,"CLASSIFICATION_TYPE":"U","NORAD_CAT_ID":48062,"ELEMENT_SET_NO":999,"REV_AT_EPOCH":23299,"BSTAR":-0.00069011111,"MEAN_MOTION_DOT":-2.39e-6,"MEAN_MOTION_DDOT":0},{"OBJECT_NAME":"ONEWEB-0164","OBJECT_ID":"2021-025X","EPOCH":"2026-01-11T04:05:14.462592","MEAN_MOTION":13.13470369,"ECCENTRICITY":0.00017629,"INCLINATION":87.9003,"RA_OF_ASC_NODE":351.4146,"ARG_OF_PERICENTER":81.7985,"MEAN_ANOMALY":278.3344,"EPHEMERIS_TYPE":0,"CLASSIFICATION_TYPE":"U","NORAD_CAT_ID":48063,"ELEMENT_SET_NO":999,"REV_AT_EPOCH":23297,"BSTAR":0.00050767356,"MEAN_MOTION_DOT":1.98e-6,"MEAN_MOTION_DDOT":0},{"OBJECT_NAME":"ONEWEB-0167","OBJECT_ID":"2021-025Y","EPOCH":"2026-01-11T04:45:28.199520","MEAN_MOTION":13.13471503,"ECCENTRICITY":0.00010144,"INCLINATION":87.8992,"RA_OF_ASC_NODE":351.434,"ARG_OF_PERICENTER":81.8413,"MEAN_ANOMALY":278.2831,"EPHEMERIS_TYPE":0,"CLASSIFICATION_TYPE":"U","NORAD_CAT_ID":48064,"ELEMENT_SET_NO":999,"REV_AT_EPOCH":23296,"BSTAR":-0.00087707593,"MEAN_MOTION_DOT":-3.08e-6,"MEAN_MOTION_DDOT":0},{"OBJECT_NAME":"ONEWEB-0166","OBJECT_ID":"2021-025Z","EPOCH":"2026-01-11T07:08:04.746624","MEAN_MOTION":13.13469761,"ECCENTRICITY":0.0001826,"INCLINATION":87.9,"RA_OF_ASC_NODE":351.3728,"ARG_OF_PERICENTER":90.2452,"MEAN_ANOMALY":269.8887,"EPHEMERIS_TYPE":0,"CLASSIFICATION_TYPE":"U","NORAD_CAT_ID":48065,"ELEMENT_SET_NO":999,"REV_AT_EPOCH":23305,"BSTAR":0.00014433152,"MEAN_MOTION_DOT":6.5e-7,"MEAN_MOTION_DDOT":0}]
